STARLINK-36831          
1 67864U 26034Q   26059.25002315 -.01512178  00000+0 -64863-2 0  9991
2 67864  53.1498 258.5849 0000615  72.2697 334.6548 15.86958463  2346
STARLINK-36738          
1 67865U 26034R   26059.25002315 -.01506521  00000+0 -64033-2 0  9996
2 67865  53.1497 258.5783 0000671  72.5935 337.3449 15.87131322  2341
STARLINK-36780          
1 67866U 26034S   26059.25002315 -.01504091  00000+0 -63358-2 0  9996
2 67866  53.1494 258.5721 0000710  73.9229 338.9894 15.87306915  2349
STARLINK-36761          
1 67867U 26034T   26059.25002315 -.01464439  00000+0 -62419-2 0  9995
2 67867  53.1494 258.5657 0000602  83.3738 332.5535 15.87465603  2340
STARLINK-36762          
1 67868U 26034U   26059.25002315 -.01468623  00000+0 -62107-2 0  9999
2 67868  53.1494 258.5596 0000604  85.4328 333.5163 15.87631301  2341
STARLINK-36779          
1 67869U 26034V   26059.25002315 -.01460817  00000+0 -61211-2 0  9992
2 67869  53.1494 258.5531 0000767  71.8953 349.9591 15.87795654  2342
STARLINK-36770          
1 67870U 26034W   26059.25002315 -.01461354  00000+0 -60264-2 0  9998
2 67870  53.1493 258.5409 0000708  73.9347 353.8395 15.88114194  2343
STARLINK-36769          
1 67871U 26034X   26059.25002315 -.01465033  00000+0 -60940-2 0  9998
2 67871  53.1493 258.5469 0000756  72.8853 352.0369 15.87950042  2344
STARLINK-36786          
1 67872U 26034Y   26059.25002315 -.01453813  00000+0 -59434-2 0  9998
2 67872  53.1493 258.5350 0000720  70.1699   0.4855 15.88269919  2345
STARLINK-36783          
1 67873U 26034Z   26059.25002315 -.01447653  00000+0 -58669-2 0  9993
2 67873  53.1492 258.5286 0000777  64.6983   8.7719 15.88428351  2346
STARLINK-36730          
1 67874U 26034AA  26059.25002315 -.01446047  00000+0 -58115-2 0  9996
2 67874  53.1494 258.5237 0000845  68.8273   7.4172 15.88589162  2346
STARLINK-36727          
1 67875U 26034AB  26059.25002315 -.01444211  00000+0 -57572-2 0  9994
2 67875  53.1493 258.5177 0000803  67.6324  11.3886 15.88745652  2341
