CCSDS_OMM_VERS = 2.0
CREATION_DATE  = 
ORIGINATOR     = 

OBJECT_NAME    = STARLINK-36831
OBJECT_ID      = 2026-034Q
CENTER_NAME    = EARTH
REF_FRAME      = TEME
TIME_SYSTEM    = UTC
MEAN_ELEMENT_THEORY = SGP/SGP4

EPOCH          = 2026-02-28T06:00:02.000160
MEAN_MOTION    = 15.86958463
ECCENTRICITY   = .00006153
INCLINATION    = 53.1498
RA_OF_ASC_NODE = 258.5849
ARG_OF_PERICENTER = 72.2697
MEAN_ANOMALY   = 334.6548

EPHEMERIS_TYPE = 0
CLASSIFICATION_TYPE = U
NORAD_CAT_ID   = 67864
ELEMENT_SET_NO = 999
REV_AT_EPOCH   = 234
BSTAR          = -.6486312E-2
MEAN_MOTION_DOT = -.1512178E-1
MEAN_MOTION_DDOT = 0

CCSDS_OMM_VERS = 2.0
CREATION_DATE  = 
ORIGINATOR     = 

OBJECT_NAME    = STARLINK-36738
OBJECT_ID      = 2026-034R
CENTER_NAME    = EARTH
REF_FRAME      = TEME
TIME_SYSTEM    = UTC
MEAN_ELEMENT_THEORY = SGP/SGP4

EPOCH          = 2026-02-28T06:00:02.000160
MEAN_MOTION    = 15.87131322
ECCENTRICITY   = .00006717
INCLINATION    = 53.1497
RA_OF_ASC_NODE = 258.5783
ARG_OF_PERICENTER = 72.5935
MEAN_ANOMALY   = 337.3449

EPHEMERIS_TYPE = 0
CLASSIFICATION_TYPE = U
NORAD_CAT_ID   = 67865
ELEMENT_SET_NO = 999
REV_AT_EPOCH   = 234
BSTAR          = -.64033164E-2
MEAN_MOTION_DOT = -.1506521E-1
MEAN_MOTION_DDOT = 0

CCSDS_OMM_VERS = 2.0
CREATION_DATE  = 
ORIGINATOR     = 

OBJECT_NAME    = STARLINK-36780
OBJECT_ID      = 2026-034S
CENTER_NAME    = EARTH
REF_FRAME      = TEME
TIME_SYSTEM    = UTC
MEAN_ELEMENT_THEORY = SGP/SGP4

EPOCH          = 2026-02-28T06:00:02.000160
MEAN_MOTION    = 15.87306915
ECCENTRICITY   = .00007101
INCLINATION    = 53.1494
RA_OF_ASC_NODE = 258.5721
ARG_OF_PERICENTER = 73.9229
MEAN_ANOMALY   = 338.9894

EPHEMERIS_TYPE = 0
CLASSIFICATION_TYPE = U
NORAD_CAT_ID   = 67866
ELEMENT_SET_NO = 999
REV_AT_EPOCH   = 234
BSTAR          = -.63357757E-2
MEAN_MOTION_DOT = -.1504091E-1
MEAN_MOTION_DDOT = 0

CCSDS_OMM_VERS = 2.0
CREATION_DATE  = 
ORIGINATOR     = 

OBJECT_NAME    = STARLINK-36761
OBJECT_ID      = 2026-034T
CENTER_NAME    = EARTH
REF_FRAME      = TEME
TIME_SYSTEM    = UTC
MEAN_ELEMENT_THEORY = SGP/SGP4

EPOCH          = 2026-02-28T06:00:02.000160
MEAN_MOTION    = 15.87465603
ECCENTRICITY   = .00006022
INCLINATION    = 53.1494
RA_OF_ASC_NODE = 258.5657
ARG_OF_PERICENTER = 83.3738
MEAN_ANOMALY   = 332.5535

EPHEMERIS_TYPE = 0
CLASSIFICATION_TYPE = U
NORAD_CAT_ID   = 67867
ELEMENT_SET_NO = 999
REV_AT_EPOCH   = 234
BSTAR          = -.6241883E-2
MEAN_MOTION_DOT = -.1464439E-1
MEAN_MOTION_DDOT = 0

CCSDS_OMM_VERS = 2.0
CREATION_DATE  = 
ORIGINATOR     = 

OBJECT_NAME    = STARLINK-36762
OBJECT_ID      = 2026-034U
CENTER_NAME    = EARTH
REF_FRAME      = TEME
TIME_SYSTEM    = UTC
MEAN_ELEMENT_THEORY = SGP/SGP4

EPOCH          = 2026-02-28T06:00:02.000160
MEAN_MOTION    = 15.87631301
ECCENTRICITY   = .00006049
INCLINATION    = 53.1494
RA_OF_ASC_NODE = 258.5596
ARG_OF_PERICENTER = 85.4328
MEAN_ANOMALY   = 333.5163

EPHEMERIS_TYPE = 0
CLASSIFICATION_TYPE = U
NORAD_CAT_ID   = 67868
ELEMENT_SET_NO = 999
REV_AT_EPOCH   = 234
BSTAR          = -.62107176E-2
MEAN_MOTION_DOT = -.1468623E-1
MEAN_MOTION_DDOT = 0

CCSDS_OMM_VERS = 2.0
CREATION_DATE  = 
ORIGINATOR     = 

OBJECT_NAME    = STARLINK-36779
OBJECT_ID      = 2026-034V
CENTER_NAME    = EARTH
REF_FRAME      = TEME
TIME_SYSTEM    = UTC
MEAN_ELEMENT_THEORY = SGP/SGP4

EPOCH          = 2026-02-28T06:00:02.000160
MEAN_MOTION    = 15.87795654
ECCENTRICITY   = .00007672
INCLINATION    = 53.1494
RA_OF_ASC_NODE = 258.5531
ARG_OF_PERICENTER = 71.8953
MEAN_ANOMALY   = 349.9591

EPHEMERIS_TYPE = 0
CLASSIFICATION_TYPE = U
NORAD_CAT_ID   = 67869
ELEMENT_SET_NO = 999
REV_AT_EPOCH   = 234
BSTAR          = -.61210637E-2
MEAN_MOTION_DOT = -.1460817E-1
MEAN_MOTION_DDOT = 0

CCSDS_OMM_VERS = 2.0
CREATION_DATE  = 
ORIGINATOR     = 

OBJECT_NAME    = STARLINK-36770
OBJECT_ID      = 2026-034W
CENTER_NAME    = EARTH
REF_FRAME      = TEME
TIME_SYSTEM    = UTC
MEAN_ELEMENT_THEORY = SGP/SGP4

EPOCH          = 2026-02-28T06:00:02.000160
MEAN_MOTION    = 15.88114194
ECCENTRICITY   = .00007083
INCLINATION    = 53.1493
RA_OF_ASC_NODE = 258.5409
ARG_OF_PERICENTER = 73.9347
MEAN_ANOMALY   = 353.8395

EPHEMERIS_TYPE = 0
CLASSIFICATION_TYPE = U
NORAD_CAT_ID   = 67870
ELEMENT_SET_NO = 999
REV_AT_EPOCH   = 234
BSTAR          = -.60263813E-2
MEAN_MOTION_DOT = -.1461354E-1
MEAN_MOTION_DDOT = 0

CCSDS_OMM_VERS = 2.0
CREATION_DATE  = 
ORIGINATOR     = 

OBJECT_NAME    = STARLINK-36769
OBJECT_ID      = 2026-034X
CENTER_NAME    = EARTH
REF_FRAME      = TEME
TIME_SYSTEM    = UTC
MEAN_ELEMENT_THEORY = SGP/SGP4

EPOCH          = 2026-02-28T06:00:02.000160
MEAN_MOTION    = 15.87950042
ECCENTRICITY   = .00007563
INCLINATION    = 53.1493
RA_OF_ASC_NODE = 258.5469
ARG_OF_PERICENTER = 72.8853
MEAN_ANOMALY   = 352.0369

EPHEMERIS_TYPE = 0
CLASSIFICATION_TYPE = U
NORAD_CAT_ID   = 67871
ELEMENT_SET_NO = 999
REV_AT_EPOCH   = 234
BSTAR          = -.60940297E-2
MEAN_MOTION_DOT = -.1465033E-1
MEAN_MOTION_DDOT = 0

CCSDS_OMM_VERS = 2.0
CREATION_DATE  = 
ORIGINATOR     = 

OBJECT_NAME    = STARLINK-36786
OBJECT_ID      = 2026-034Y
CENTER_NAME    = EARTH
REF_FRAME      = TEME
TIME_SYSTEM    = UTC
MEAN_ELEMENT_THEORY = SGP/SGP4

EPOCH          = 2026-02-28T06:00:02.000160
MEAN_MOTION    = 15.88269919
ECCENTRICITY   = .000072
INCLINATION    = 53.1493
RA_OF_ASC_NODE = 258.5350
ARG_OF_PERICENTER = 70.1699
MEAN_ANOMALY   = 0.4855

EPHEMERIS_TYPE = 0
CLASSIFICATION_TYPE = U
NORAD_CAT_ID   = 67872
ELEMENT_SET_NO = 999
REV_AT_EPOCH   = 234
BSTAR          = -.59434094E-2
MEAN_MOTION_DOT = -.1453813E-1
MEAN_MOTION_DDOT = 0

CCSDS_OMM_VERS = 2.0
CREATION_DATE  = 
ORIGINATOR     = 

OBJECT_NAME    = STARLINK-36783
OBJECT_ID      = 2026-034Z
CENTER_NAME    = EARTH
REF_FRAME      = TEME
TIME_SYSTEM    = UTC
MEAN_ELEMENT_THEORY = SGP/SGP4

EPOCH          = 2026-02-28T06:00:02.000160
MEAN_MOTION    = 15.88428351
ECCENTRICITY   = .00007773
INCLINATION    = 53.1492
RA_OF_ASC_NODE = 258.5286
ARG_OF_PERICENTER = 64.6983
MEAN_ANOMALY   = 8.7719

EPHEMERIS_TYPE = 0
CLASSIFICATION_TYPE = U
NORAD_CAT_ID   = 67873
ELEMENT_SET_NO = 999
REV_AT_EPOCH   = 234
BSTAR          = -.58668652E-2
MEAN_MOTION_DOT = -.1447653E-1
MEAN_MOTION_DDOT = 0

CCSDS_OMM_VERS = 2.0
CREATION_DATE  = 
ORIGINATOR     = 

OBJECT_NAME    = STARLINK-36730
OBJECT_ID      = 2026-034AA
CENTER_NAME    = EARTH
REF_FRAME      = TEME
TIME_SYSTEM    = UTC
MEAN_ELEMENT_THEORY = SGP/SGP4

EPOCH          = 2026-02-28T06:00:02.000160
MEAN_MOTION    = 15.88589162
ECCENTRICITY   = .00008455
INCLINATION    = 53.1494
RA_OF_ASC_NODE = 258.5237
ARG_OF_PERICENTER = 68.8273
MEAN_ANOMALY   = 7.4172

EPHEMERIS_TYPE = 0
CLASSIFICATION_TYPE = U
NORAD_CAT_ID   = 67874
ELEMENT_SET_NO = 999
REV_AT_EPOCH   = 234
BSTAR          = -.58115303E-2
MEAN_MOTION_DOT = -.1446047E-1
MEAN_MOTION_DDOT = 0

CCSDS_OMM_VERS = 2.0
CREATION_DATE  = 
ORIGINATOR     = 

OBJECT_NAME    = STARLINK-36727
OBJECT_ID      = 2026-034AB
CENTER_NAME    = EARTH
REF_FRAME      = TEME
TIME_SYSTEM    = UTC
MEAN_ELEMENT_THEORY = SGP/SGP4

EPOCH          = 2026-02-28T06:00:02.000160
MEAN_MOTION    = 15.88745652
ECCENTRICITY   = .00008039
INCLINATION    = 53.1493
RA_OF_ASC_NODE = 258.5177
ARG_OF_PERICENTER = 67.6324
MEAN_ANOMALY   = 11.3886

EPHEMERIS_TYPE = 0
CLASSIFICATION_TYPE = U
NORAD_CAT_ID   = 67875
ELEMENT_SET_NO = 999
REV_AT_EPOCH   = 234
BSTAR          = -.57572294E-2
MEAN_MOTION_DOT = -.1444211E-1
MEAN_MOTION_DDOT = 0

